{
  "norad_id": 64322,
  "name": "STARLINK-11747 [DTC]",
  "history": [
    {
      "epoch": "2026-03-28T21:24:34.164576Z",
      "apogee_km": 357.51236025853996,
      "perigee_km": 355.31635775139694,
      "latitude_deg": 1.2531114560498809e-05,
      "longitude_deg": 126.09126852172203,
      "height_km": 356.41313829992845,
      "semi_major_axis_km": 6734.551359004969,
      "eccentricity": 0.00016304,
      "inclination_deg": 42.9996,
      "raan_deg": 273.5396,
      "arg_perigee_deg": 258.1084,
      "mean_anomaly_deg": 101.9601,
      "mean_motion_rev_day": 15.70868236
    },
    {
      "epoch": "2026-03-29T05:02:23.002080Z",
      "apogee_km": 357.12017913829004,
      "perigee_km": 355.4473490204937,
      "latitude_deg": -1.584661864645925e-05,
      "longitude_deg": 9.40838620572734,
      "height_km": 355.391176864622,
      "semi_major_axis_km": 6734.420764079392,
      "eccentricity": 0.0001242,
      "inclination_deg": 42.9995,
      "raan_deg": 271.6236,
      "arg_perigee_deg": 37.5686,
      "mean_anomaly_deg": 322.5268,
      "mean_motion_rev_day": 15.7091393
    },
    {
      "epoch": "2026-03-30T14:36:41.696352Z",
      "apogee_km": 359.5362837439061,
      "perigee_km": 353.5836198021734,
      "latitude_deg": 3.892877602914753e-06,
      "longitude_deg": -143.98093171837488,
      "height_km": 354.7648957143363,
      "semi_major_axis_km": 6734.6969517730395,
      "eccentricity": 0.00044194,
      "inclination_deg": 42.998,
      "raan_deg": 263.1909,
      "arg_perigee_deg": 301.8158,
      "mean_anomaly_deg": 58.2279,
      "mean_motion_rev_day": 15.70817297
    },
    {
      "epoch": "2026-03-30T20:42:56.407968Z",
      "apogee_km": 356.8155586629955,
      "perigee_km": 356.00916372248594,
      "latitude_deg": 1.766416426028068e-05,
      "longitude_deg": 122.67489893605132,
      "height_km": 356.1401542838714,
      "semi_major_axis_km": 6734.54936119274,
      "eccentricity": 5.987e-05,
      "inclination_deg": 42.9953,
      "raan_deg": 261.6587,
      "arg_perigee_deg": 83.9931,
      "mean_anomaly_deg": 276.1005,
      "mean_motion_rev_day": 15.70868935
    },
    {
      "epoch": "2026-03-31T19:36:19.504224Z",
      "apogee_km": 357.3303115522194,
      "perigee_km": 355.674937132555,
      "latitude_deg": -5.19128861257528e-05,
      "longitude_deg": 132.63794305831178,
      "height_km": 356.27567244258665,
      "semi_major_axis_km": 6734.639624342387,
      "eccentricity": 0.0001229,
      "inclination_deg": 43.0001,
      "raan_deg": 255.9081,
      "arg_perigee_deg": 269.9496,
      "mean_anomaly_deg": 90.123,
      "mean_motion_rev_day": 15.70837354
    },
    {
      "epoch": "2026-04-01T16:58:09.625440Z",
      "apogee_km": 357.05761489425004,
      "perigee_km": 355.8130659257431,
      "latitude_deg": 7.165747606478654e-06,
      "longitude_deg": 165.93708366156886,
      "height_km": 356.6475675908419,
      "semi_major_axis_km": 6734.572340409996,
      "eccentricity": 9.24e-05,
      "inclination_deg": 43.0025,
      "raan_deg": 250.5434,
      "arg_perigee_deg": 224.9729,
      "mean_anomaly_deg": 135.1064,
      "mean_motion_rev_day": 15.70860895
    },
    {
      "epoch": "2026-04-02T20:00:01.999008Z",
      "apogee_km": 357.7458461761207,
      "perigee_km": 355.6176434527588,
      "latitude_deg": -41.83121618723976,
      "longitude_deg": 5.213580683295573,
      "height_km": 368.4626014364695,
      "semi_major_axis_km": 6734.818744814439,
      "eccentricity": 0.000158,
      "inclination_deg": 43.0007,
      "raan_deg": 243.7569,
      "arg_perigee_deg": 278.7664,
      "mean_anomaly_deg": 338.3382,
      "mean_motion_rev_day": 15.70774687
    },
    {
      "epoch": "2026-04-02T22:00:01.999584Z",
      "apogee_km": 357.8399995487853,
      "perigee_km": 355.69398973993157,
      "latitude_deg": 6.086875370947035,
      "longitude_deg": 88.51583169630312,
      "height_km": 355.96089957238246,
      "semi_major_axis_km": 6734.903994644358,
      "eccentricity": 0.00015932,
      "inclination_deg": 43.0005,
      "raan_deg": 243.2534,
      "arg_perigee_deg": 278.5253,
      "mean_anomaly_deg": 90.4326,
      "mean_motion_rev_day": 15.70744863
    },
    {
      "epoch": "2026-04-03T19:19:37.157952Z",
      "apogee_km": 357.4883730120446,
      "perigee_km": 355.5662998104317,
      "latitude_deg": -3.0214482100585343e-05,
      "longitude_deg": 115.85721088974223,
      "height_km": 356.5426996167982,
      "semi_major_axis_km": 6734.664336411238,
      "eccentricity": 0.0001427,
      "inclination_deg": 43.0015,
      "raan_deg": 237.8964,
      "arg_perigee_deg": 255.3664,
      "mean_anomaly_deg": 104.7045,
      "mean_motion_rev_day": 15.70828708
    }
  ]
}